[{"OBJECT_NAME":"STARLINK-1681","OBJECT_ID":"2020-070AD","EPOCH":"2025-08-25T10:46:51.807072","MEAN_MOTION":15.26366109,"ECCENTRICITY":0.00027223,"INCLINATION":53.063,"RA_OF_ASC_NODE":292.0885,"ARG_OF_PERICENTER":79.9259,"MEAN_ANOMALY":280.2046,"EPHEMERIS_TYPE":0,"CLASSIFICATION_TYPE":"U","NORAD_CAT_ID":46559,"ELEMENT_SET_NO":999,"REV_AT_EPOCH":27056,"BSTAR":0.0019578765,"MEAN_MOTION_DOT":0.00051594,"MEAN_MOTION_DDOT":0},{"OBJECT_NAME":"STARLINK-1714","OBJECT_ID":"2020-070AG","EPOCH":"2025-08-25T12:01:36.041376","MEAN_MOTION":15.18225514,"ECCENTRICITY":0.0005545,"INCLINATION":53.0574,"RA_OF_ASC_NODE":313.7865,"ARG_OF_PERICENTER":300.0846,"MEAN_ANOMALY":59.9598,"EPHEMERIS_TYPE":0,"CLASSIFICATION_TYPE":"U","NORAD_CAT_ID":46562,"ELEMENT_SET_NO":999,"REV_AT_EPOCH":27026,"BSTAR":0.0017240559,"MEAN_MOTION_DOT":0.00035586,"MEAN_MOTION_DDOT":0},{"OBJECT_NAME":"STARLINK-1730","OBJECT_ID":"2020-070AH","EPOCH":"2025-08-25T12:14:32.098272","MEAN_MOTION":15.1586405,"ECCENTRICITY":0.00032185,"INCLINATION":53.0541,"RA_OF_ASC_NODE":313.3283,"ARG_OF_PERICENTER":295.9052,"MEAN_ANOMALY":64.161,"EPHEMERIS_TYPE":0,"CLASSIFICATION_TYPE":"U","NORAD_CAT_ID":46563,"ELEMENT_SET_NO":999,"REV_AT_EPOCH":27027,"BSTAR":0.0013968361,"MEAN_MOTION_DOT":0.0002684,"MEAN_MOTION_DDOT":0},{"OBJECT_NAME":"STARLINK-1733","OBJECT_ID":"2020-070AJ","EPOCH":"2025-08-25T13:05:50.710848","MEAN_MOTION":15.06383512,"ECCENTRICITY":0.00011693,"INCLINATION":53.0561,"RA_OF_ASC_NODE":317.2202,"ARG_OF_PERICENTER":92.6121,"MEAN_ANOMALY":267.5002,"EPHEMERIS_TYPE":0,"CLASSIFICATION_TYPE":"U","NORAD_CAT_ID":46564,"ELEMENT_SET_NO":999,"REV_AT_EPOCH":27022,"BSTAR":0.00039340187,"MEAN_MOTION_DOT":5.581e-5,"MEAN_MOTION_DDOT":0},{"OBJECT_NAME":"STARLINK-1735","OBJECT_ID":"2020-070AK","EPOCH":"2025-08-25T10:47:49.037568","MEAN_MOTION":15.06403582,"ECCENTRICITY":0.00011896,"INCLINATION":53.0546,"RA_OF_ASC_NODE":317.5784,"ARG_OF_PERICENTER":81.8338,"MEAN_ANOMALY":278.2786,"EPHEMERIS_TYPE":0,"CLASSIFICATION_TYPE":"U","NORAD_CAT_ID":46565,"ELEMENT_SET_NO":999,"REV_AT_EPOCH":27020,"BSTAR":0.0001805555,"MEAN_MOTION_DOT":2.409e-5,"MEAN_MOTION_DDOT":0},{"OBJECT_NAME":"STARLINK-1740","OBJECT_ID":"2020-070AL","EPOCH":"2025-08-25T11:57:04.154400","MEAN_MOTION":15.32547709,"ECCENTRICITY":0.00013335,"INCLINATION":53.0529,"RA_OF_ASC_NODE":315.218,"ARG_OF_PERICENTER":52.2271,"MEAN_ANOMALY":307.885,"EPHEMERIS_TYPE":0,"CLASSIFICATION_TYPE":"U","NORAD_CAT_ID":46566,"ELEMENT_SET_NO":999,"REV_AT_EPOCH":27024,"BSTAR":0.0018069094,"MEAN_MOTION_DOT":0.0005766,"MEAN_MOTION_DDOT":0},{"OBJECT_NAME":"STARLINK-1741","OBJECT_ID":"2020-070AM","EPOCH":"2025-08-25T14:20:07.940832","MEAN_MOTION":15.06408928,"ECCENTRICITY":0.00011664,"INCLINATION":53.0551,"RA_OF_ASC_NODE":316.9133,"ARG_OF_PERICENTER":72.3416,"MEAN_ANOMALY":287.77,"EPHEMERIS_TYPE":0,"CLASSIFICATION_TYPE":"U","NORAD_CAT_ID":46567,"ELEMENT_SET_NO":999,"REV_AT_EPOCH":27023,"BSTAR":0.00033301545,"MEAN_MOTION_DOT":4.683e-5,"MEAN_MOTION_DDOT":0},{"OBJECT_NAME":"STARLINK-1531","OBJECT_ID":"2020-070AS","EPOCH":"2025-08-25T12:24:38.347200","MEAN_MOTION":15.06410276,"ECCENTRICITY":0.00011978,"INCLINATION":53.0561,"RA_OF_ASC_NODE":337.2592,"ARG_OF_PERICENTER":113.5087,"MEAN_ANOMALY":246.6028,"EPHEMERIS_TYPE":0,"CLASSIFICATION_TYPE":"U","NORAD_CAT_ID":46572,"ELEMENT_SET_NO":999,"REV_AT_EPOCH":26993,"BSTAR":-0.00018616724,"MEAN_MOTION_DOT":-3.054e-5,"MEAN_MOTION_DDOT":0},{"OBJECT_NAME":"STARLINK-1660","OBJECT_ID":"2020-070AU","EPOCH":"2025-08-25T14:00:03.000384","MEAN_MOTION":15.89228997,"ECCENTRICITY":0.00137923,"INCLINATION":53.0287,"RA_OF_ASC_NODE":261.0415,"ARG_OF_PERICENTER":17.6203,"MEAN_ANOMALY":0.1234,"EPHEMERIS_TYPE":0,"CLASSIFICATION_TYPE":"U","NORAD_CAT_ID":46574,"ELEMENT_SET_NO":999,"REV_AT_EPOCH":609,"BSTAR":0.00097511525,"MEAN_MOTION_DOT":0.00286732,"MEAN_MOTION_DDOT":4.0948921e-5},{"OBJECT_NAME":"STARLINK-1675","OBJECT_ID":"2020-070AV","EPOCH":"2025-08-25T14:00:03.000384","MEAN_MOTION":15.57425606,"ECCENTRICITY":0.00034502,"INCLINATION":53.0457,"RA_OF_ASC_NODE":255.4804,"ARG_OF_PERICENTER":4.7162,"MEAN_ANOMALY":135.7091,"EPHEMERIS_TYPE":0,"CLASSIFICATION_TYPE":"U","NORAD_CAT_ID":46575,"ELEMENT_SET_NO":999,"REV_AT_EPOCH":603,"BSTAR":0.0016290354,"MEAN_MOTION_DOT":0.00123065,"MEAN_MOTION_DDOT":0},{"OBJECT_NAME":"STARLINK-1677","OBJECT_ID":"2020-070AW","EPOCH":"2025-08-25T11:21:39.414240","MEAN_MOTION":15.06404623,"ECCENTRICITY":0.00011039,"INCLINATION":53.0552,"RA_OF_ASC_NODE":322.4729,"ARG_OF_PERICENTER":77.4557,"MEAN_ANOMALY":282.6555,"EPHEMERIS_TYPE":0,"CLASSIFICATION_TYPE":"U","NORAD_CAT_ID":46576,"ELEMENT_SET_NO":999,"REV_AT_EPOCH":27014,"BSTAR":0.00016066376,"MEAN_MOTION_DOT":2.113e-5,"MEAN_MOTION_DDOT":0},{"OBJECT_NAME":"STARLINK-1683","OBJECT_ID":"2020-070AY","EPOCH":"2025-08-25T10:03:41.010624","MEAN_MOTION":15.25841735,"ECCENTRICITY":0.00042526,"INCLINATION":53.0296,"RA_OF_ASC_NODE":291.5978,"ARG_OF_PERICENTER":10.7273,"MEAN_ANOMALY":349.3814,"EPHEMERIS_TYPE":0,"CLASSIFICATION_TYPE":"U","NORAD_CAT_ID":46578,"ELEMENT_SET_NO":999,"REV_AT_EPOCH":27057,"BSTAR":0.0018285001,"MEAN_MOTION_DOT":0.00047382,"MEAN_MOTION_DDOT":0},{"OBJECT_NAME":"STARLINK-1705","OBJECT_ID":"2020-070AZ","EPOCH":"2025-08-25T12:41:43.169568","MEAN_MOTION":15.35245658,"ECCENTRICITY":0.00072719,"INCLINATION":53.0531,"RA_OF_ASC_NODE":315.6304,"ARG_OF_PERICENTER":323.6638,"MEAN_ANOMALY":36.3869,"EPHEMERIS_TYPE":0,"CLASSIFICATION_TYPE":"U","NORAD_CAT_ID":46579,"ELEMENT_SET_NO":999,"REV_AT_EPOCH":27024,"BSTAR":0.0017367509,"MEAN_MOTION_DOT":0.00060434,"MEAN_MOTION_DDOT":0},{"OBJECT_NAME":"STARLINK-1712","OBJECT_ID":"2020-070BB","EPOCH":"2025-08-25T11:49:49.120896","MEAN_MOTION":15.32375246,"ECCENTRICITY":0.00090431,"INCLINATION":53.0557,"RA_OF_ASC_NODE":309.6309,"ARG_OF_PERICENTER":319.1986,"MEAN_ANOMALY":40.8336,"EPHEMERIS_TYPE":0,"CLASSIFICATION_TYPE":"U","NORAD_CAT_ID":46581,"ELEMENT_SET_NO":999,"REV_AT_EPOCH":27032,"BSTAR":0.0017947789,"MEAN_MOTION_DOT":0.00057017,"MEAN_MOTION_DDOT":0},{"OBJECT_NAME":"STARLINK-1728","OBJECT_ID":"2020-070BC","EPOCH":"2025-08-25T13:11:07.601856","MEAN_MOTION":15.06409776,"ECCENTRICITY":9.625e-5,"INCLINATION":53.0555,"RA_OF_ASC_NODE":317.1265,"ARG_OF_PERICENTER":89.9119,"MEAN_ANOMALY":270.198,"EPHEMERIS_TYPE":0,"CLASSIFICATION_TYPE":"U","NORAD_CAT_ID":46582,"ELEMENT_SET_NO":999,"REV_AT_EPOCH":27022,"BSTAR":0.00030289725,"MEAN_MOTION_DOT":4.234e-5,"MEAN_MOTION_DDOT":0},{"OBJECT_NAME":"STARLINK-1736","OBJECT_ID":"2020-070BF","EPOCH":"2025-08-25T12:55:15.949920","MEAN_MOTION":15.06409988,"ECCENTRICITY":0.0001223,"INCLINATION":53.0547,"RA_OF_ASC_NODE":317.5231,"ARG_OF_PERICENTER":93.3541,"MEAN_ANOMALY":266.7588,"EPHEMERIS_TYPE":0,"CLASSIFICATION_TYPE":"U","NORAD_CAT_ID":46585,"ELEMENT_SET_NO":999,"REV_AT_EPOCH":27021,"BSTAR":0.00022676565,"MEAN_MOTION_DOT":3.099e-5,"MEAN_MOTION_DDOT":0},{"OBJECT_NAME":"STARLINK-1746","OBJECT_ID":"2020-070BJ","EPOCH":"2025-08-25T13:00:30.634272","MEAN_MOTION":15.06401465,"ECCENTRICITY":0.00010328,"INCLINATION":53.0556,"RA_OF_ASC_NODE":317.1598,"ARG_OF_PERICENTER":87.5049,"MEAN_ANOMALY":272.6058,"EPHEMERIS_TYPE":0,"CLASSIFICATION_TYPE":"U","NORAD_CAT_ID":46588,"ELEMENT_SET_NO":999,"REV_AT_EPOCH":27022,"BSTAR":0.00012336969,"MEAN_MOTION_DOT":1.557e-5,"MEAN_MOTION_DDOT":0},{"OBJECT_NAME":"STARLINK-1716","OBJECT_ID":"2020-073C","EPOCH":"2025-08-24T21:44:15.616320","MEAN_MOTION":15.0640201,"ECCENTRICITY":0.00012701,"INCLINATION":53.0546,"RA_OF_ASC_NODE":45.0151,"ARG_OF_PERICENTER":86.428,"MEAN_ANOMALY":273.6854,"EPHEMERIS_TYPE":0,"CLASSIFICATION_TYPE":"U","NORAD_CAT_ID":46672,"ELEMENT_SET_NO":999,"REV_AT_EPOCH":26747,"BSTAR":4.5392099e-5,"MEAN_MOTION_DOT":3.95e-6,"MEAN_MOTION_DDOT":0},{"OBJECT_NAME":"STARLINK-1718","OBJECT_ID":"2020-073E","EPOCH":"2025-08-24T20:45:53.197056","MEAN_MOTION":15.06397897,"ECCENTRICITY":0.00013553,"INCLINATION":53.0565,"RA_OF_ASC_NODE":45.1998,"ARG_OF_PERICENTER":95.8688,"MEAN_ANOMALY":264.2456,"EPHEMERIS_TYPE":0,"CLASSIFICATION_TYPE":"U","NORAD_CAT_ID":46674,"ELEMENT_SET_NO":999,"REV_AT_EPOCH":26746,"BSTAR":8.0158524e-5,"MEAN_MOTION_DOT":9.13e-6,"MEAN_MOTION_DDOT":0},{"OBJECT_NAME":"STARLINK-1775","OBJECT_ID":"2020-073M","EPOCH":"2025-08-25T11:59:28.756896","MEAN_MOTION":15.06389022,"ECCENTRICITY":0.00013048,"INCLINATION":53.0557,"RA_OF_ASC_NODE":57.3498,"ARG_OF_PERICENTER":97.7454,"MEAN_ANOMALY":262.3683,"EPHEMERIS_TYPE":0,"CLASSIFICATION_TYPE":"U","NORAD_CAT_ID":46681,"ELEMENT_SET_NO":999,"REV_AT_EPOCH":26734,"BSTAR":0.0001496541,"MEAN_MOTION_DOT":1.948e-5,"MEAN_MOTION_DDOT":0},{"OBJECT_NAME":"STARLINK-1781","OBJECT_ID":"2020-073R","EPOCH":"2025-08-25T12:41:58.747488","MEAN_MOTION":15.06403221,"ECCENTRICITY":0.00013921,"INCLINATION":53.0554,"RA_OF_ASC_NODE":57.4845,"ARG_OF_PERICENTER":90.0445,"MEAN_ANOMALY":270.0704,"EPHEMERIS_TYPE":0,"CLASSIFICATION_TYPE":"U","NORAD_CAT_ID":46685,"ELEMENT_SET_NO":999,"REV_AT_EPOCH":26734,"BSTAR":0.00010629279,"MEAN_MOTION_DOT":1.302e-5,"MEAN_MOTION_DDOT":0},{"OBJECT_NAME":"STARLINK-1784","OBJECT_ID":"2020-073T","EPOCH":"2025-08-25T14:30:04.345344","MEAN_MOTION":15.0639474,"ECCENTRICITY":0.00018652,"INCLINATION":53.0566,"RA_OF_ASC_NODE":21.8764,"ARG_OF_PERICENTER":97.0203,"MEAN_ANOMALY":263.0998,"EPHEMERIS_TYPE":0,"CLASSIFICATION_TYPE":"U","NORAD_CAT_ID":46687,"ELEMENT_SET_NO":999,"REV_AT_EPOCH":26785,"BSTAR":-5.6841619e-5,"MEAN_MOTION_DOT":-1.128e-5,"MEAN_MOTION_DDOT":0},{"OBJECT_NAME":"STARLINK-1788","OBJECT_ID":"2020-073V","EPOCH":"2025-08-25T11:48:57.984192","MEAN_MOTION":15.06396564,"ECCENTRICITY":0.00012677,"INCLINATION":53.0549,"RA_OF_ASC_NODE":58.0332,"ARG_OF_PERICENTER":94.5844,"MEAN_ANOMALY":265.529,"EPHEMERIS_TYPE":0,"CLASSIFICATION_TYPE":"U","NORAD_CAT_ID":46689,"ELEMENT_SET_NO":999,"REV_AT_EPOCH":26858,"BSTAR":-5.2675882e-5,"MEAN_MOTION_DOT":-1.066e-5,"MEAN_MOTION_DDOT":0}]
